{
  "type": "FeatureCollection",
  "features": [
    {
      "type": "Feature",
      "properties": {
        "norad_id": 66316,
        "name": "QPS-SAR-14 (YACHIHOKO-I)",
        "group": "last-30-days",
        "lat": -17.469663423007606,
        "lon": -43.01325245442418,
        "alt_km": 577.387113601053,
        "timestamp": "2025-12-05T05:43:13.894379+00:00",
        "meta_object_name": "QPS-SAR-14 (YACHIHOKO-I)",
        "meta_object_id": "2025-252A",
        "meta_epoch": "2025-12-04T15:59:51.959904",
        "meta_mean_motion": 14.97574412,
        "meta_eccentricity": 0.0006845,
        "meta_inclination": 42.0036,
        "meta_ra_of_asc_node": 119.6506,
        "meta_arg_of_pericenter": 95.5659,
        "meta_mean_anomaly": 264.5947,
        "meta_ephemeris_type": 0,
        "meta_classification_type": "U",
        "meta_norad_cat_id": 66316,
        "meta_element_set_no": 999,
        "meta_rev_at_epoch": 432,
        "meta_bstar": 0.0011222,
        "meta_mean_motion_dot": 0.00013169,
        "meta_mean_motion_ddot": 0,
        "tle_line1": "1 66316U 25252A   25338.66657361  .00013169  00000+0  11222-2 0  9998",
        "tle_line2": "2 66316  42.0036 119.6506 0006845  95.5659 264.5947 14.97574412  4329"
      },
      "geometry": {
        "type": "Point",
        "coordinates": [
          -43.01325245442418,
          -17.469663423007606
        ]
      }
    },
    {
      "type": "Feature",
      "properties": {
        "norad_id": 66317,
        "name": "ELECTRON R/B",
        "group": "last-30-days",
        "lat": 37.76465063848116,
        "lon": 155.00769692707075,
        "alt_km": 167.28766008359707,
        "timestamp": "2025-12-05T05:43:13.894438+00:00",
        "meta_object_name": "ELECTRON R/B",
        "meta_object_id": "2025-252B",
        "meta_epoch": "2025-12-04T16:09:30.337920",
        "meta_mean_motion": 16.20073041,
        "meta_eccentricity": 0.0062086,
        "meta_inclination": 41.9852,
        "meta_ra_of_asc_node": 99.2617,
        "meta_arg_of_pericenter": 80.1195,
        "meta_mean_anomaly": 280.6676,
        "meta_ephemeris_type": 0,
        "meta_classification_type": "U",
        "meta_norad_cat_id": 66317,
        "meta_element_set_no": 999,
        "meta_rev_at_epoch": 455,
        "meta_bstar": 0.0015417,
        "meta_mean_motion_dot": 0.04861387,
        "meta_mean_motion_ddot": 8.3152e-06,
        "tle_line1": "1 66317U 25252B   25338.67326780  .04861387  83152-5  15417-2 0  9990",
        "tle_line2": "2 66317  41.9852  99.2617 0062086  80.1195 280.6676 16.20073041  4557"
      },
      "geometry": {
        "type": "Point",
        "coordinates": [
          155.00769692707075,
          37.76465063848116
        ]
      }
    },
    {
      "type": "Feature",
      "properties": {
        "norad_id": 66319,
        "name": "STARLINK-35442",
        "group": "last-30-days",
        "lat": -23.25979613705514,
        "lon": 1.637326354694787,
        "alt_km": 445.17758677533584,
        "timestamp": "2025-12-05T05:43:13.894456+00:00",
        "meta_object_name": "STARLINK-35442",
        "meta_object_id": "2025-253A",
        "meta_epoch": "2025-12-04T11:12:12.627648",
        "meta_mean_motion": 15.40680264,
        "meta_eccentricity": 0.0001636,
        "meta_inclination": 43.0027,
        "meta_ra_of_asc_node": 33.5509,
        "meta_arg_of_pericenter": 271.7121,
        "meta_mean_anomaly": 88.3548,
        "meta_ephemeris_type": 0,
        "meta_classification_type": "U",
        "meta_norad_cat_id": 66319,
        "meta_element_set_no": 999,
        "meta_rev_at_epoch": 564,
        "meta_bstar": 0.002125,
        "meta_mean_motion_dot": 0.0008945,
        "meta_mean_motion_ddot": 0,
        "tle_line1": "1 66319U 25253A   25338.46681282  .00089450  00000+0  21250-2 0  9997",
        "tle_line2": "2 66319  43.0027  33.5509 0001636 271.7121  88.3548 15.40680264  5642"
      },
      "geometry": {
        "type": "Point",
        "coordinates": [
          1.637326354694787,
          -23.25979613705514
        ]
      }
    },
    {
      "type": "Feature",
      "properties": {
        "norad_id": 66320,
        "name": "STARLINK-34616",
        "group": "last-30-days",
        "lat": 27.035839929716243,
        "lon": 175.48031282545085,
        "alt_km": 436.93261520835586,
        "timestamp": "2025-12-05T05:43:13.894470+00:00",
        "meta_object_name": "STARLINK-34616",
        "meta_object_id": "2025-253B",
        "meta_epoch": "2025-12-04T18:00:02.000160",
        "meta_mean_motion": 15.44091342,
        "meta_eccentricity": 0.0001165,
        "meta_inclination": 43.0006,
        "meta_ra_of_asc_node": 31.5087,
        "meta_arg_of_pericenter": 271.3128,
        "meta_mean_anomaly": 31.0064,
        "meta_ephemeris_type": 0,
        "meta_classification_type": "U",
        "meta_norad_cat_id": 66320,
        "meta_element_set_no": 999,
        "meta_rev_at_epoch": 584,
        "meta_bstar": -0.049091,
        "meta_mean_motion_dot": -0.02043192,
        "meta_mean_motion_ddot": 0,
        "tle_line1": "1 66320U 25253B   25338.75002315 -.02043192  00000+0 -49091-1 0  9994",
        "tle_line2": "2 66320  43.0006  31.5087 0001165 271.3128  31.0064 15.44091342  5847"
      },
      "geometry": {
        "type": "Point",
        "coordinates": [
          175.48031282545085,
          27.035839929716243
        ]
      }
    },
    {
      "type": "Feature",
      "properties": {
        "norad_id": 66321,
        "name": "STARLINK-34615",
        "group": "last-30-days",
        "lat": 27.864555969488524,
        "lon": 173.24126771718056,
        "alt_km": 411.7636059375145,
        "timestamp": "2025-12-05T05:43:13.894482+00:00",
        "meta_object_name": "STARLINK-34615",
        "meta_object_id": "2025-253C",
        "meta_epoch": "2025-12-04T18:00:02.000160",
        "meta_mean_motion": 15.50645357,
        "meta_eccentricity": 0.0001665,
        "meta_inclination": 43.0003,
        "meta_ra_of_asc_node": 30.6633,
        "meta_arg_of_pericenter": 280.7282,
        "meta_mean_anomaly": 6.7619,
        "meta_ephemeris_type": 0,
        "meta_classification_type": "U",
        "meta_norad_cat_id": 66321,
        "meta_element_set_no": 999,
        "meta_rev_at_epoch": 569,
        "meta_bstar": -0.0022769,
        "meta_mean_motion_dot": -0.00132002,
        "meta_mean_motion_ddot": 0,
        "tle_line1": "1 66321U 25253C   25338.75002315 -.00132002  00000+0 -22769-2 0  9996",
        "tle_line2": "2 66321  43.0003  30.6633 0001665 280.7282   6.7619 15.50645357  5698"
      },
      "geometry": {
        "type": "Point",
        "coordinates": [
          173.24126771718056,
          27.864555969488524
        ]
      }
    },
    {
      "type": "Feature",
      "properties": {
        "norad_id": 66322,
        "name": "STARLINK-35292",
        "group": "last-30-days",
        "lat": 1.148147102496385,
        "lon": 30.246988174863283,
        "alt_km": 444.20663502381103,
        "timestamp": "2025-12-05T05:43:13.894494+00:00",
        "meta_object_name": "STARLINK-35292",
        "meta_object_id": "2025-253D",
        "meta_epoch": "2025-12-04T14:00:01.000224",
        "meta_mean_motion": 15.40702534,
        "meta_eccentricity": 0.00016414,
        "meta_inclination": 43.0007,
        "meta_ra_of_asc_node": 32.7895,
        "meta_arg_of_pericenter": 269.5668,
        "meta_mean_anomaly": 55.0705,
        "meta_ephemeris_type": 0,
        "meta_classification_type": "U",
        "meta_norad_cat_id": 66322,
        "meta_element_set_no": 999,
        "meta_rev_at_epoch": 561,
        "meta_bstar": -0.0036875485,
        "meta_mean_motion_dot": -0.00151343,
        "meta_mean_motion_ddot": 0,
        "tle_line1": "1 66322U 25253D   25338.58334491 -.00151343  00000+0 -36875-2 0  9993",
        "tle_line2": "2 66322  43.0007  32.7895 0001641 269.5668  55.0705 15.40702534  5618"
      },
      "geometry": {
        "type": "Point",
        "coordinates": [
          30.246988174863283,
          1.148147102496385
        ]
      }
    },
    {
      "type": "Feature",
      "properties": {
        "norad_id": 66323,
        "name": "STARLINK-35309",
        "group": "last-30-days",
        "lat": -3.102197899195739,
        "lon": -148.0962498226941,
        "alt_km": 413.91665153602116,
        "timestamp": "2025-12-05T05:43:13.894505+00:00",
        "meta_object_name": "STARLINK-35309",
        "meta_object_id": "2025-253E",
        "meta_epoch": "2025-12-04T11:55:34.293216",
        "meta_mean_motion": 15.50737349,
        "meta_eccentricity": 0.0003796,
        "meta_inclination": 43.0008,
        "meta_ra_of_asc_node": 32.9093,
        "meta_arg_of_pericenter": 268.5168,
        "meta_mean_anomaly": 91.5257,
        "meta_ephemeris_type": 0,
        "meta_classification_type": "U",
        "meta_norad_cat_id": 66323,
        "meta_element_set_no": 999,
        "meta_rev_at_epoch": 565,
        "meta_bstar": 0.0030261,
        "meta_mean_motion_dot": 0.00182433,
        "meta_mean_motion_ddot": 0,
        "tle_line1": "1 66323U 25253E   25338.49692469  .00182433  00000+0  30261-2 0  9991",
        "tle_line2": "2 66323  43.0008  32.9093 0003796 268.5168  91.5257 15.50737349  5653"
      },
      "geometry": {
        "type": "Point",
        "coordinates": [
          -148.0962498226941,
          -3.102197899195739
        ]
      }
    }
  ]
}